{
    "links": {
        "self": "http://www.neowsapp.com/rest/v1/neo/3892196?api_key=iIulBulltgU6a56xZRHN4H3l9WmuAYTsLGpBGhQ2"
    },
    "id": "3892196",
    "neo_reference_id": "3892196",
    "name": "(2019 VH)",
    "designation": "2019 VH",
    "nasa_jpl_url": "http://ssd.jpl.nasa.gov/sbdb.cgi?sstr=3892196",
    "absolute_magnitude_h": 27.7,
    "estimated_diameter": {
        "kilometers": {
            "estimated_diameter_min": 0.0076657557,
            "estimated_diameter_max": 0.0171411509
        },
        "meters": {
            "estimated_diameter_min": 7.6657557353,
            "estimated_diameter_max": 17.1411509231
        },
        "miles": {
            "estimated_diameter_min": 0.0047632783,
            "estimated_diameter_max": 0.0106510141
        },
        "feet": {
            "estimated_diameter_min": 25.1501180466,
            "estimated_diameter_max": 56.2373735944
        }
    },
    "is_potentially_hazardous_asteroid": false,
    "close_approach_data": [
        {
            "close_approach_date": "2019-10-28",
            "close_approach_date_full": "2019-Oct-28 15:13",
            "epoch_date_close_approach": 1572275580000,
            "relative_velocity": {
                "kilometers_per_second": "8.5780029781",
                "kilometers_per_hour": "30880.8107213104",
                "miles_per_hour": "19188.1348618053"
            },
            "miss_distance": {
                "astronomical": "0.0130267227",
                "lunar": "5.0673951303",
                "kilometers": "1948769.969000649",
                "miles": "1210909.5081169962"
            },
            "orbiting_body": "Earth"
        }
    ],
    "orbital_data": {
        "orbit_id": "3",
        "orbit_determination_date": "2019-11-05 06:06:10",
        "first_observation_date": "2019-10-29",
        "last_observation_date": "2019-11-05",
        "data_arc_in_days": 7,
        "observations_used": 26,
        "orbit_uncertainty": "8",
        "minimum_orbit_intersection": ".00109051",
        "jupiter_tisserand_invariant": "3.736",
        "epoch_osculation": "2458788.5",
        "eccentricity": ".4963979471964841",
        "semi_major_axis": "1.941692467551252",
        "inclination": "5.416124080458758",
        "ascending_node_longitude": "211.5741914146032",
        "orbital_period": "988.2551714474417",
        "perihelion_distance": ".9778403125719347",
        "perihelion_argument": "160.7794358730995",
        "aphelion_distance": "2.90554462253057",
        "perihelion_time": "2458767.417931703426",
        "mean_anomaly": "7.679741837981643",
        "mean_motion": ".3642783872031028",
        "equinox": "J2000",
        "orbit_class": {
            "orbit_class_type": "APO",
            "orbit_class_description": "Near-Earth asteroid orbits which cross the Earth’s orbit similar to that of 1862 Apollo",
            "orbit_class_range": "a (semi-major axis) > 1.0 AU; q (perihelion) < 1.017 AU"
        }
    },
    "is_sentry_object": false
}